{"type":"FeatureCollection","features":[{"type":"Feature","id":"wsh-014d75ae1048","geometry":{"type":"Point","coordinates":[-74.01511472616954,40.67546559688342]},"properties":{"id":"wsh-014d75ae1048","name":"VanBrunt Street at Beard Street","street":"VanBrunt Street","crossStreet":"Beard Street","borough":"Brooklyn","inPedestrianVolumeIndex":false,"am":144,"md":790,"pm":389,"total":1323,"change":831,"changeYears":"May 2007 – May 2026","firstYear":2007,"lastYear":2026,"yearsMeasured":19,"latestSurvey":"May 2026","trend":"rising"}},{"type":"Feature","id":"wsh-04f69002ddc2","geometry":{"type":"Point","coordinates":[-73.88412639509386,40.74873155074409]},"properties":{"id":"wsh-04f69002ddc2","name":"82 Street at 37th Avenue","street":"82 Street","crossStreet":"37th Avenue","borough":"Queens","inPedestrianVolumeIndex":true,"am":2191,"md":4244,"pm":6837,"total":13272,"change":3666,"changeYears":"May 2007 – May 2026","firstYear":2007,"lastYear":2026,"yearsMeasured":20,"latestSurvey":"May 2026","trend":"rising"}},{"type":"Feature","id":"wsh-0cf0a9a582d2","geometry":{"type":"Point","coordinates":[-74.00451806937401,40.70806272095774]},"properties":{"id":"wsh-0cf0a9a582d2","name":"Fulton Street at Cliff Street","street":"Fulton Street","crossStreet":"Cliff Street","borough":"Manhattan","inPedestrianVolumeIndex":false,"am":1908,"md":2959,"pm":6009,"total":10876,"change":-1639,"changeYears":"May 2007 – May 2026","firstYear":2007,"lastYear":2026,"yearsMeasured":19,"latestSurvey":"May 2026","trend":"flat"}},{"type":"Feature","id":"wsh-0e84ac9222b9","geometry":{"type":"Point","coordinates":[-73.82818894237838,40.76005352048369]},"properties":{"id":"wsh-0e84ac9222b9","name":"Roosevelt Avenue at Main Street","street":"Roosevelt Avenue","crossStreet":"Main Street","borough":"Queens","inPedestrianVolumeIndex":false,"am":5090,"md":7116,"pm":12024,"total":24230,"change":1081,"changeYears":"May 2007 – May 2026","firstYear":2007,"lastYear":2026,"yearsMeasured":19,"latestSurvey":"May 2026","trend":"flat"}},{"type":"Feature","id":"wsh-1288f9359c1c","geometry":{"type":"Point","coordinates":[-73.96829307507049,40.755190220332366]},"properties":{"id":"wsh-1288f9359c1c","name":"Seco Avenue at 50th Street","street":"Seco Avenue","crossStreet":"50th Street","borough":"Manhattan","inPedestrianVolumeIndex":true,"am":2106,"md":2546,"pm":5245,"total":9897,"change":125,"changeYears":"May 2007 – May 2026","firstYear":2007,"lastYear":2026,"yearsMeasured":20,"latestSurvey":"May 2026","trend":"flat"}},{"type":"Feature","id":"wsh-14982a83d5ac","geometry":{"type":"Point","coordinates":[-73.90459140730678,40.87919896648574]},"properties":{"id":"wsh-14982a83d5ac","name":"Broadway at West 231st Street","street":"Broadway","crossStreet":"West 231st Street","borough":"Bronx","inPedestrianVolumeIndex":false,"am":881,"md":2476,"pm":3337,"total":6694,"change":-1097,"changeYears":"May 2007 – May 2026","firstYear":2007,"lastYear":2026,"yearsMeasured":19,"latestSurvey":"May 2026","trend":"flat"}},{"type":"Feature","id":"wsh-15b4a26c1e52","geometry":{"type":"Point","coordinates":[-73.95802234844946,40.71755737770773]},"properties":{"id":"wsh-15b4a26c1e52","name":"Bedford Avenue at North 7th Street","street":"Bedford Avenue","crossStreet":"North 7th Street","borough":"Brooklyn","inPedestrianVolumeIndex":true,"am":2758,"md":5187,"pm":6471,"total":14416,"change":4670,"changeYears":"May 2007 – May 2026","firstYear":2007,"lastYear":2026,"yearsMeasured":20,"latestSurvey":"May 2026","trend":"rising"}},{"type":"Feature","id":"wsh-17c79e2d521f","geometry":{"type":"Point","coordinates":[-73.97385284104773,40.75753624831215]},"properties":{"id":"wsh-17c79e2d521f","name":"Park Avenue at 50th Street","street":"Park Avenue","crossStreet":"50th Street","borough":"Manhattan","inPedestrianVolumeIndex":true,"am":5407,"md":1393,"pm":10307,"total":17107,"change":-2395,"changeYears":"May 2007 – May 2026","firstYear":2007,"lastYear":2026,"yearsMeasured":20,"latestSurvey":"May 2026","trend":"flat"}},{"type":"Feature","id":"wsh-19c88b42b888","geometry":{"type":"Point","coordinates":[-73.96888735867235,40.761264607952285]},"properties":{"id":"wsh-19c88b42b888","name":"Lexington Avenue at East 57th Street","street":"Lexington Avenue","crossStreet":"East 57th Street","borough":"Manhattan","inPedestrianVolumeIndex":true,"am":3686,"md":2688,"pm":7911,"total":14285,"change":-17538,"changeYears":"May 2007 – May 2026","firstYear":2007,"lastYear":2026,"yearsMeasured":20,"latestSurvey":"May 2026","trend":"falling"}},{"type":"Feature","id":"wsh-1a0e350775e8","geometry":{"type":"Point","coordinates":[-73.98219706247882,40.7718134030119]},"properties":{"id":"wsh-1a0e350775e8","name":"Broadway at West 63rd Street","street":"Broadway","crossStreet":"West 63rd Street","borough":"Manhattan","inPedestrianVolumeIndex":true,"am":1605,"md":3684,"pm":5452,"total":10741,"change":-2226,"changeYears":"May 2007 – May 2026","firstYear":2007,"lastYear":2026,"yearsMeasured":20,"latestSurvey":"May 2026","trend":"falling"}},{"type":"Feature","id":"wsh-1df00a697083","geometry":{"type":"Point","coordinates":[-73.98936305063111,40.718989359353586]},"properties":{"id":"wsh-1df00a697083","name":"Delancey Street at Orchard Street","street":"Delancey Street","crossStreet":"Orchard Street","borough":"Manhattan","inPedestrianVolumeIndex":true,"am":1217,"md":3547,"pm":4315,"total":9079,"change":2732,"changeYears":"May 2007 – May 2026","firstYear":2007,"lastYear":2026,"yearsMeasured":20,"latestSurvey":"May 2026","trend":"rising"}},{"type":"Feature","id":"wsh-1fb530f0baa4","geometry":{"type":"Point","coordinates":[-73.97536263666144,40.75817343083521]},"properties":{"id":"wsh-1fb530f0baa4","name":"Madison Avenue at 50th Street","street":"Madison Avenue","crossStreet":"50th Street","borough":"Manhattan","inPedestrianVolumeIndex":false,"am":4968,"md":2015,"pm":9630,"total":16613,"change":-195,"changeYears":"May 2007 – May 2026","firstYear":2007,"lastYear":2026,"yearsMeasured":19,"latestSurvey":"May 2026","trend":"flat"}},{"type":"Feature","id":"wsh-21cde12d63b8","geometry":{"type":"Point","coordinates":[-73.93330492386069,40.819494945411535]},"properties":{"id":"wsh-21cde12d63b8","name":"145th Street Bridge at midpoint","street":"145th Street Bridge","crossStreet":"midpoint","borough":"Harlem River Bridges","inPedestrianVolumeIndex":false,"am":331,"md":344,"pm":842,"total":1517,"change":1050,"changeYears":"May 2007 – May 2026","firstYear":2007,"lastYear":2026,"yearsMeasured":18,"latestSurvey":"May 2026","trend":"rising"}},{"type":"Feature","id":"wsh-21cf571f0621","geometry":{"type":"Point","coordinates":[-73.93434784508338,40.84958094443508]},"properties":{"id":"wsh-21cf571f0621","name":"West 181st Street at St. Nicholas Avenue","street":"West 181st Street","crossStreet":"St. Nicholas Avenue","borough":"Manhattan","inPedestrianVolumeIndex":true,"am":1202,"md":3567,"pm":5536,"total":10305,"change":-797,"changeYears":"May 2007 – May 2026","firstYear":2007,"lastYear":2026,"yearsMeasured":20,"latestSurvey":"May 2026","trend":"flat"}},{"type":"Feature","id":"wsh-2d7bfbff5a23","geometry":{"type":"Point","coordinates":[-73.95475091689498,40.58754340485192]},"properties":{"id":"wsh-2d7bfbff5a23","name":"Sheepshead Bay Road at East 14th Street","street":"Sheepshead Bay Road","crossStreet":"East 14th Street","borough":"Brooklyn","inPedestrianVolumeIndex":true,"am":1174,"md":1057,"pm":2455,"total":4686,"change":-894,"changeYears":"May 2007 – May 2026","firstYear":2007,"lastYear":2026,"yearsMeasured":20,"latestSurvey":"May 2026","trend":"falling"}},{"type":"Feature","id":"wsh-30a357bee79d","geometry":{"type":"Point","coordinates":[-73.99336426671383,40.69453486150852]},"properties":{"id":"wsh-30a357bee79d","name":"Montague Street at Henry Street","street":"Montague Street","crossStreet":"Henry Street","borough":"Brooklyn","inPedestrianVolumeIndex":true,"am":1727,"md":2538,"pm":3689,"total":7954,"change":-1003,"changeYears":"May 2007 – May 2026","firstYear":2007,"lastYear":2026,"yearsMeasured":20,"latestSurvey":"May 2026","trend":"flat"}},{"type":"Feature","id":"wsh-30c74c1cc368","geometry":{"type":"Point","coordinates":[-74.01009312926121,40.715904559004244]},"properties":{"id":"wsh-30c74c1cc368","name":"Chambers Street at West Broadway","street":"Chambers Street","crossStreet":"West Broadway","borough":"Manhattan","inPedestrianVolumeIndex":true,"am":4677,"md":2190,"pm":5883,"total":12750,"change":-4904,"changeYears":"May 2007 – May 2026","firstYear":2007,"lastYear":2026,"yearsMeasured":20,"latestSurvey":"May 2026","trend":"falling"}},{"type":"Feature","id":"wsh-33eccbc619ba","geometry":{"type":"Point","coordinates":[-74.01098647762808,40.70733537559069]},"properties":{"id":"wsh-33eccbc619ba","name":"Wall Street at New Street","street":"Wall Street","crossStreet":"New Street","borough":"Manhattan","inPedestrianVolumeIndex":true,"am":4057,"md":4818,"pm":8468,"total":17343,"change":5266,"changeYears":"May 2007 – May 2026","firstYear":2007,"lastYear":2026,"yearsMeasured":19,"latestSurvey":"May 2026","trend":"rising"}},{"type":"Feature","id":"wsh-347ad967a55d","geometry":{"type":"Point","coordinates":[-73.8713031803217,40.73382228902959]},"properties":{"id":"wsh-347ad967a55d","name":"Queens Boulevard at Woodhaven Boulevard","street":"Queens Boulevard","crossStreet":"Woodhaven Boulevard","borough":"Queens","inPedestrianVolumeIndex":false,"am":3041,"md":3650,"pm":7169,"total":13860,"change":8991,"changeYears":"May 2007 – May 2026","firstYear":2007,"lastYear":2026,"yearsMeasured":19,"latestSurvey":"May 2026","trend":"rising"}},{"type":"Feature","id":"wsh-37d931541724","geometry":{"type":"Point","coordinates":[-74.0752448014028,40.64298352630176]},"properties":{"id":"wsh-37d931541724","name":"Pedestrian Walkway from Ferry Terminal at 50' north of Richmo Terrace","street":"Pedestrian Walkway from Ferry Terminal","crossStreet":"50' north of Richmo Terrace","borough":"Staten Isla","inPedestrianVolumeIndex":true,"am":629,"md":432,"pm":953,"total":2014,"change":-881,"changeYears":"May 2007 – May 2026","firstYear":2007,"lastYear":2026,"yearsMeasured":20,"latestSurvey":"May 2026","trend":"falling"}},{"type":"Feature","id":"wsh-38805123eea8","geometry":{"type":"Point","coordinates":[-73.97053303866996,40.75613758564416]},"properties":{"id":"wsh-38805123eea8","name":"Third Avenue at 50th Street","street":"Third Avenue","crossStreet":"50th Street","borough":"Manhattan","inPedestrianVolumeIndex":false,"am":3734,"md":2546,"pm":7758,"total":14038,"change":-2740,"changeYears":"May 2007 – May 2026","firstYear":2007,"lastYear":2026,"yearsMeasured":19,"latestSurvey":"May 2026","trend":"falling"}},{"type":"Feature","id":"wsh-388b0c6e1d20","geometry":{"type":"Point","coordinates":[-73.98335689692979,40.752843606340384]},"properties":{"id":"wsh-388b0c6e1d20","name":"West 40th Street at Avenue of the Americas","street":"West 40th Street","crossStreet":"Avenue of the Americas","borough":"Manhattan","inPedestrianVolumeIndex":true,"am":4189,"md":3334,"pm":10748,"total":18271,"change":-1393,"changeYears":"May 2007 – May 2026","firstYear":2007,"lastYear":2026,"yearsMeasured":20,"latestSurvey":"May 2026","trend":"flat"}},{"type":"Feature","id":"wsh-397d0581a638","geometry":{"type":"Point","coordinates":[-73.91635737290386,40.81688745834867]},"properties":{"id":"wsh-397d0581a638","name":"Third Avenue at East 150th Street","street":"Third Avenue","crossStreet":"East 150th Street","borough":"Bronx","inPedestrianVolumeIndex":true,"am":1169,"md":3414,"pm":5276,"total":9859,"change":-2485,"changeYears":"May 2007 – May 2026","firstYear":2007,"lastYear":2026,"yearsMeasured":20,"latestSurvey":"May 2026","trend":"falling"}},{"type":"Feature","id":"wsh-45ee6ca98e39","geometry":{"type":"Point","coordinates":[-73.91488962537817,40.86276958338556]},"properties":{"id":"wsh-45ee6ca98e39","name":"University Heights Bridge at midpoint","street":"University Heights Bridge","crossStreet":"midpoint","borough":"Harlem River Bridges","inPedestrianVolumeIndex":false,"am":218,"md":161,"pm":512,"total":891,"change":-102,"changeYears":"May 2007 – May 2026","firstYear":2007,"lastYear":2026,"yearsMeasured":18,"latestSurvey":"May 2026","trend":"flat"}},{"type":"Feature","id":"wsh-464df13a024c","geometry":{"type":"Point","coordinates":[-73.98383919698608,40.76174395517826]},"properties":{"id":"wsh-464df13a024c","name":"Broadway at 50th Street","street":"Broadway","crossStreet":"50th Street","borough":"Manhattan","inPedestrianVolumeIndex":true,"am":2675,"md":5859,"pm":11499,"total":20033,"change":-3966,"changeYears":"May 2007 – May 2026","firstYear":2007,"lastYear":2026,"yearsMeasured":20,"latestSurvey":"May 2026","trend":"falling"}},{"type":"Feature","id":"wsh-4794cac0df3b","geometry":{"type":"Point","coordinates":[-74.0084036486757,40.71055376746076]},"properties":{"id":"wsh-4794cac0df3b","name":"Fulton Street at Broadway","street":"Fulton Street","crossStreet":"Broadway","borough":"Manhattan","inPedestrianVolumeIndex":true,"am":3728,"md":3910,"pm":8377,"total":16015,"change":-172,"changeYears":"May 2007 – May 2026","firstYear":2007,"lastYear":2026,"yearsMeasured":20,"latestSurvey":"May 2026","trend":"flat"}},{"type":"Feature","id":"wsh-488907729385","geometry":{"type":"Point","coordinates":[-73.93947115150922,40.74817129070961]},"properties":{"id":"wsh-488907729385","name":"Jackson Avenue at Queens Street","street":"Jackson Avenue","crossStreet":"Queens Street","borough":"Queens","inPedestrianVolumeIndex":false,"am":1349,"md":2500,"pm":3367,"total":7216,"change":6329,"changeYears":"May 2007 – May 2026","firstYear":2007,"lastYear":2026,"yearsMeasured":19,"latestSurvey":"May 2026","trend":"rising"}},{"type":"Feature","id":"wsh-4ac924bd6332","geometry":{"type":"Point","coordinates":[-73.98134205800814,40.66717415129596]},"properties":{"id":"wsh-4ac924bd6332","name":"7th Avenue at 9th Street","street":"7th Avenue","crossStreet":"9th Street","borough":"Brooklyn","inPedestrianVolumeIndex":true,"am":2847,"md":2540,"pm":3655,"total":9042,"change":89,"changeYears":"May 2007 – May 2026","firstYear":2007,"lastYear":2026,"yearsMeasured":20,"latestSurvey":"May 2026","trend":"flat"}},{"type":"Feature","id":"wsh-4cd83a4bf355","geometry":{"type":"Point","coordinates":[-73.80439743099372,40.76247070217481]},"properties":{"id":"wsh-4cd83a4bf355","name":"Northern Boulevard at 50' East of 161st Street","street":"Northern Boulevard","crossStreet":"50' East of 161st Street","borough":"Queens","inPedestrianVolumeIndex":false,"am":238,"md":509,"pm":677,"total":1424,"change":-180,"changeYears":"May 2007 – May 2026","firstYear":2007,"lastYear":2026,"yearsMeasured":19,"latestSurvey":"May 2026","trend":"flat"}},{"type":"Feature","id":"wsh-52e9b2ceaf95","geometry":{"type":"Point","coordinates":[-73.95959352755617,40.608201460936]},"properties":{"id":"wsh-52e9b2ceaf95","name":"Kings Highway at East 13th Street","street":"Kings Highway","crossStreet":"East 13th Street","borough":"Brooklyn","inPedestrianVolumeIndex":false,"am":2048,"md":2117,"pm":5694,"total":9859,"change":898,"changeYears":"May 2007 – May 2026","firstYear":2007,"lastYear":2026,"yearsMeasured":18,"latestSurvey":"May 2026","trend":"flat"}},{"type":"Feature","id":"wsh-56535d5bf939","geometry":{"type":"Point","coordinates":[-74.02728680504437,40.622138829200395]},"properties":{"id":"wsh-56535d5bf939","name":"86th Street at 4th Avenue","street":"86th Street","crossStreet":"4th Avenue","borough":"Brooklyn","inPedestrianVolumeIndex":true,"am":1294,"md":2351,"pm":4315,"total":7960,"change":-1102,"changeYears":"May 2007 – May 2026","firstYear":2007,"lastYear":2026,"yearsMeasured":20,"latestSurvey":"May 2026","trend":"flat"}},{"type":"Feature","id":"wsh-565be88c5433","geometry":{"type":"Point","coordinates":[-74.1108725293572,40.57107102644238]},"properties":{"id":"wsh-565be88c5433","name":"New Dorp Lane at Hylan Boulevard","street":"New Dorp Lane","crossStreet":"Hylan Boulevard","borough":"Staten Isla","inPedestrianVolumeIndex":false,"am":382,"md":666,"pm":739,"total":1787,"change":768,"changeYears":"May 2007 – May 2026","firstYear":2007,"lastYear":2026,"yearsMeasured":19,"latestSurvey":"May 2026","trend":"rising"}},{"type":"Feature","id":"wsh-5663d1a79972","geometry":{"type":"Point","coordinates":[-73.78539020907581,40.69769336243358]},"properties":{"id":"wsh-5663d1a79972","name":"Merrick Boulevard at 108th Drive","street":"Merrick Boulevard","crossStreet":"108th Drive","borough":"Queens","inPedestrianVolumeIndex":false,"am":145,"md":106,"pm":250,"total":501,"change":232,"changeYears":"May 2007 – May 2026","firstYear":2007,"lastYear":2026,"yearsMeasured":19,"latestSurvey":"May 2026","trend":"rising"}},{"type":"Feature","id":"wsh-5a3ce03d81f6","geometry":{"type":"Point","coordinates":[-74.01119296689038,40.64426682358741]},"properties":{"id":"wsh-5a3ce03d81f6","name":"5th Avenue at 51st Street","street":"5th Avenue","crossStreet":"51st Street","borough":"Brooklyn","inPedestrianVolumeIndex":true,"am":1045,"md":3210,"pm":4560,"total":8815,"change":-2335,"changeYears":"May 2007 – May 2026","firstYear":2007,"lastYear":2026,"yearsMeasured":19,"latestSurvey":"May 2026","trend":"falling"}},{"type":"Feature","id":"wsh-5d08b7dff251","geometry":{"type":"Point","coordinates":[-73.98589867014988,40.76257065006476]},"properties":{"id":"wsh-5d08b7dff251","name":"Eighth Avenue at 50th Street","street":"Eighth Avenue","crossStreet":"50th Street","borough":"Manhattan","inPedestrianVolumeIndex":false,"am":3573,"md":6271,"pm":10824,"total":20668,"change":5371,"changeYears":"May 2007 – May 2026","firstYear":2007,"lastYear":2026,"yearsMeasured":19,"latestSurvey":"May 2026","trend":"rising"}},{"type":"Feature","id":"wsh-5d0a97efe7c1","geometry":{"type":"Point","coordinates":[-73.9214952312361,40.6089208214552]},"properties":{"id":"wsh-5d0a97efe7c1","name":"Flatbush Avenue at Avenue U","street":"Flatbush Avenue","crossStreet":"Avenue U","borough":"Brooklyn","inPedestrianVolumeIndex":false,"am":333,"md":941,"pm":1287,"total":2561,"change":-893,"changeYears":"May 2007 – May 2026","firstYear":2007,"lastYear":2026,"yearsMeasured":19,"latestSurvey":"May 2026","trend":"falling"}},{"type":"Feature","id":"wsh-5d6b11faf0ed","geometry":{"type":"Point","coordinates":[-74.00384095197924,40.740305392828965]},"properties":{"id":"wsh-5d6b11faf0ed","name":"West 14th Street at Hudson Street","street":"West 14th Street","crossStreet":"Hudson Street","borough":"Manhattan","inPedestrianVolumeIndex":true,"am":2648,"md":5374,"pm":8431,"total":16453,"change":6864,"changeYears":"May 2007 – May 2026","firstYear":2007,"lastYear":2026,"yearsMeasured":20,"latestSurvey":"May 2026","trend":"rising"}},{"type":"Feature","id":"wsh-5df611c9e2d9","geometry":{"type":"Point","coordinates":[-73.87892467324478,40.8812869959873]},"properties":{"id":"wsh-5df611c9e2d9","name":"East Gun Hill Road at Bainbridge Avenue","street":"East Gun Hill Road","crossStreet":"Bainbridge Avenue","borough":"Bronx","inPedestrianVolumeIndex":false,"am":1375,"md":1093,"pm":2159,"total":4627,"change":-608,"changeYears":"May 2007 – May 2026","firstYear":2007,"lastYear":2026,"yearsMeasured":19,"latestSurvey":"May 2026","trend":"flat"}},{"type":"Feature","id":"wsh-5e9ad0fd3532","geometry":{"type":"Point","coordinates":[-73.97514418621735,40.761353610911776]},"properties":{"id":"wsh-5e9ad0fd3532","name":"Fifth Avenue at East 54th Street","street":"Fifth Avenue","crossStreet":"East 54th Street","borough":"Manhattan","inPedestrianVolumeIndex":true,"am":4182,"md":10980,"pm":15006,"total":30168,"change":-3275,"changeYears":"May 2007 – May 2026","firstYear":2007,"lastYear":2026,"yearsMeasured":20,"latestSurvey":"May 2026","trend":"flat"}},{"type":"Feature","id":"wsh-61b078f7f14e","geometry":{"type":"Point","coordinates":[-73.98303507483828,40.76140611887666]},"properties":{"id":"wsh-61b078f7f14e","name":"Seventh Avenue at 50th Street","street":"Seventh Avenue","crossStreet":"50th Street","borough":"Manhattan","inPedestrianVolumeIndex":false,"am":3756,"md":5651,"pm":9965,"total":19372,"change":-4176,"changeYears":"May 2007 – May 2026","firstYear":2007,"lastYear":2026,"yearsMeasured":19,"latestSurvey":"May 2026","trend":"falling"}},{"type":"Feature","id":"wsh-64fc350a041a","geometry":{"type":"Point","coordinates":[-73.92896107917844,40.803769279822106]},"properties":{"id":"wsh-64fc350a041a","name":"Willis Avenue Bridge at midpoint","street":"Willis Avenue Bridge","crossStreet":"midpoint","borough":"Harlem River Bridges","inPedestrianVolumeIndex":false,"am":105,"md":67,"pm":189,"total":361,"change":59,"changeYears":"May 2007 – May 2026","firstYear":2007,"lastYear":2026,"yearsMeasured":18,"latestSurvey":"May 2026","trend":"rising"}},{"type":"Feature","id":"wsh-672a138fd6c8","geometry":{"type":"Point","coordinates":[-73.99134284997088,40.749996387066574]},"properties":{"id":"wsh-672a138fd6c8","name":"Seventh Avenue at West 32 Street","street":"Seventh Avenue","crossStreet":"West 32 Street","borough":"Manhattan","inPedestrianVolumeIndex":true,"am":7281,"md":8617,"pm":18567,"total":34465,"change":-10036,"changeYears":"May 2007 – May 2026","firstYear":2007,"lastYear":2026,"yearsMeasured":20,"latestSurvey":"May 2026","trend":"falling"}},{"type":"Feature","id":"wsh-6782551f66aa","geometry":{"type":"Point","coordinates":[-73.98861503057542,40.7588482835213]},"properties":{"id":"wsh-6782551f66aa","name":"Eighth Avenue at West 44th Street","street":"Eighth Avenue","crossStreet":"West 44th Street","borough":"Manhattan","inPedestrianVolumeIndex":false,"am":5915,"md":11075,"pm":18498,"total":35488,"change":12198,"changeYears":"May 2007 – May 2026","firstYear":2007,"lastYear":2026,"yearsMeasured":19,"latestSurvey":"May 2026","trend":"rising"}},{"type":"Feature","id":"wsh-6a977eedc0af","geometry":{"type":"Point","coordinates":[-73.79247827489311,40.71091966309366]},"properties":{"id":"wsh-6a977eedc0af","name":"Hillside Avenue at 169th Street","street":"Hillside Avenue","crossStreet":"169th Street","borough":"Queens","inPedestrianVolumeIndex":true,"am":1076,"md":1749,"pm":3277,"total":6102,"change":-877,"changeYears":"May 2007 – May 2026","firstYear":2007,"lastYear":2026,"yearsMeasured":20,"latestSurvey":"May 2026","trend":"flat"}},{"type":"Feature","id":"wsh-6b8762e2fc9f","geometry":{"type":"Point","coordinates":[-73.99249336775775,40.68942537824676]},"properties":{"id":"wsh-6b8762e2fc9f","name":"Court Street at Atlantic Avenue","street":"Court Street","crossStreet":"Atlantic Avenue","borough":"Brooklyn","inPedestrianVolumeIndex":true,"am":1780,"md":2814,"pm":4694,"total":9288,"change":649,"changeYears":"May 2007 – May 2026","firstYear":2007,"lastYear":2026,"yearsMeasured":20,"latestSurvey":"May 2026","trend":"flat"}},{"type":"Feature","id":"wsh-6be3b2ec811e","geometry":{"type":"Point","coordinates":[-73.93380588837293,40.82809995999489]},"properties":{"id":"wsh-6be3b2ec811e","name":"Macombs Dam Bridge at midpoint","street":"Macombs Dam Bridge","crossStreet":"midpoint","borough":"Harlem River Bridges","inPedestrianVolumeIndex":false,"am":166,"md":179,"pm":523,"total":868,"change":271,"changeYears":"May 2007 – May 2026","firstYear":2007,"lastYear":2026,"yearsMeasured":18,"latestSurvey":"May 2026","trend":"rising"}},{"type":"Feature","id":"wsh-6ca158bb43d1","geometry":{"type":"Point","coordinates":[-73.9331330278822,40.814131067977755]},"properties":{"id":"wsh-6ca158bb43d1","name":"Madison Avenue Bridge at midpoint","street":"Madison Avenue Bridge","crossStreet":"midpoint","borough":"Harlem River Bridges","inPedestrianVolumeIndex":false,"am":290,"md":148,"pm":454,"total":892,"change":329,"changeYears":"May 2007 – May 2026","firstYear":2007,"lastYear":2026,"yearsMeasured":18,"latestSurvey":"May 2026","trend":"rising"}},{"type":"Feature","id":"wsh-6ce5e100a4f3","geometry":{"type":"Point","coordinates":[-73.80593752065842,40.70182238071845]},"properties":{"id":"wsh-6ce5e100a4f3","name":"Jamaica Avenue at 148th Street","street":"Jamaica Avenue","crossStreet":"148th Street","borough":"Queens","inPedestrianVolumeIndex":false,"am":976,"md":1831,"pm":2439,"total":5246,"change":-1036,"changeYears":"May 2007 – May 2026","firstYear":2007,"lastYear":2026,"yearsMeasured":19,"latestSurvey":"May 2026","trend":"falling"}},{"type":"Feature","id":"wsh-6dadc7c33346","geometry":{"type":"Point","coordinates":[-73.91018834116497,40.69967093544051]},"properties":{"id":"wsh-6dadc7c33346","name":"Myrtle Avenue at Palmetto Street","street":"Myrtle Avenue","crossStreet":"Palmetto Street","borough":"Queens","inPedestrianVolumeIndex":true,"am":1025,"md":2094,"pm":3358,"total":6477,"change":-5833,"changeYears":"May 2007 – May 2026","firstYear":2007,"lastYear":2026,"yearsMeasured":20,"latestSurvey":"May 2026","trend":"falling"}},{"type":"Feature","id":"wsh-6e6f2e2e6527","geometry":{"type":"Point","coordinates":[-73.97697246269053,40.75885135958746]},"properties":{"id":"wsh-6e6f2e2e6527","name":"Fifth Avenue at 50th Street","street":"Fifth Avenue","crossStreet":"50th Street","borough":"Manhattan","inPedestrianVolumeIndex":false,"am":3940,"md":10999,"pm":12892,"total":27831,"change":-9543,"changeYears":"May 2007 – May 2026","firstYear":2007,"lastYear":2026,"yearsMeasured":19,"latestSurvey":"May 2026","trend":"falling"}},{"type":"Feature","id":"wsh-6ea481e2ca7e","geometry":{"type":"Point","coordinates":[-73.92188432870218,40.82662794123292]},"properties":{"id":"wsh-6ea481e2ca7e","name":"East 161st Street at Gra Concourse","street":"East 161st Street","crossStreet":"Gra Concourse","borough":"Bronx","inPedestrianVolumeIndex":true,"am":2048,"md":630,"pm":2754,"total":5432,"change":-1234,"changeYears":"May 2007 – May 2026","firstYear":2007,"lastYear":2026,"yearsMeasured":20,"latestSurvey":"May 2026","trend":"falling"}},{"type":"Feature","id":"wsh-72f79aeb86bb","geometry":{"type":"Point","coordinates":[-73.75250126721374,40.604023385262565]},"properties":{"id":"wsh-72f79aeb86bb","name":"Mott Avenue at Smith Place","street":"Mott Avenue","crossStreet":"Smith Place","borough":"Queens","inPedestrianVolumeIndex":false,"am":864,"md":1238,"pm":2584,"total":4686,"change":-694,"changeYears":"May 2007 – May 2026","firstYear":2007,"lastYear":2026,"yearsMeasured":19,"latestSurvey":"May 2026","trend":"flat"}},{"type":"Feature","id":"wsh-734d81f94b0c","geometry":{"type":"Point","coordinates":[-73.8309343552709,40.76118578331917]},"properties":{"id":"wsh-734d81f94b0c","name":"Main Street at 37th Avenue","street":"Main Street","crossStreet":"37th Avenue","borough":"Queens","inPedestrianVolumeIndex":true,"am":2035,"md":5563,"pm":6553,"total":14151,"change":-2605,"changeYears":"May 2007 – May 2026","firstYear":2007,"lastYear":2026,"yearsMeasured":20,"latestSurvey":"May 2026","trend":"falling"}},{"type":"Feature","id":"wsh-74544ecb0d3e","geometry":{"type":"Point","coordinates":[-73.88956389732787,40.844636776717664]},"properties":{"id":"wsh-74544ecb0d3e","name":"East Tremont Avenue at Prospect Avenue","street":"East Tremont Avenue","crossStreet":"Prospect Avenue","borough":"Bronx","inPedestrianVolumeIndex":false,"am":849,"md":1550,"pm":2233,"total":4632,"change":-890,"changeYears":"May 2007 – May 2026","firstYear":2007,"lastYear":2026,"yearsMeasured":19,"latestSurvey":"May 2026","trend":"falling"}},{"type":"Feature","id":"wsh-7468ec1b81c8","geometry":{"type":"Point","coordinates":[-73.83274555228842,40.76053254069111]},"properties":{"id":"wsh-7468ec1b81c8","name":"Prince Street at 37th Avenue","street":"Prince Street","crossStreet":"37th Avenue","borough":"Queens","inPedestrianVolumeIndex":false,"am":422,"md":4499,"pm":4468,"total":9389,"change":6922,"changeYears":"May 2007 – May 2026","firstYear":2007,"lastYear":2026,"yearsMeasured":19,"latestSurvey":"May 2026","trend":"rising"}},{"type":"Feature","id":"wsh-761a6be24f72","geometry":{"type":"Point","coordinates":[-73.82971390855914,40.713719487169804]},"properties":{"id":"wsh-761a6be24f72","name":"Queens Boulevard at 50' East of 80th Road","street":"Queens Boulevard","crossStreet":"50' East of 80th Road","borough":"Queens","inPedestrianVolumeIndex":false,"am":930,"md":480,"pm":1643,"total":3053,"change":-15289,"changeYears":"May 2007 – May 2026","firstYear":2007,"lastYear":2026,"yearsMeasured":19,"latestSurvey":"May 2026","trend":"falling"}},{"type":"Feature","id":"wsh-7de9a95c89cd","geometry":{"type":"Point","coordinates":[-73.93252967704326,40.807554810103504]},"properties":{"id":"wsh-7de9a95c89cd","name":"Third Avenue Bridge at midpoint","street":"Third Avenue Bridge","crossStreet":"midpoint","borough":"Harlem River Bridges","inPedestrianVolumeIndex":false,"am":111,"md":91,"pm":247,"total":449,"change":-126,"changeYears":"May 2007 – May 2026","firstYear":2007,"lastYear":2026,"yearsMeasured":18,"latestSurvey":"May 2026","trend":"falling"}},{"type":"Feature","id":"wsh-7e0c9dd2c7ff","geometry":{"type":"Point","coordinates":[-73.97665547944715,40.75169473512389]},"properties":{"id":"wsh-7e0c9dd2c7ff","name":"East 42 Street at Park Avenue","street":"East 42 Street","crossStreet":"Park Avenue","borough":"Manhattan","inPedestrianVolumeIndex":true,"am":7285,"md":6138,"pm":16297,"total":29720,"change":483,"changeYears":"May 2007 – May 2026","firstYear":2007,"lastYear":2026,"yearsMeasured":20,"latestSurvey":"May 2026","trend":"flat"}},{"type":"Feature","id":"wsh-7f78444d3a8e","geometry":{"type":"Point","coordinates":[-74.16614928494091,40.58813530683326]},"properties":{"id":"wsh-7f78444d3a8e","name":"Richmo Hill Road at 400' west of Richmo Terrace","street":"Richmo Hill Road","crossStreet":"400' west of Richmo Terrace","borough":"Staten Isla","inPedestrianVolumeIndex":false,"am":89,"md":47,"pm":122,"total":258,"change":-117,"changeYears":"May 2007 – May 2026","firstYear":2007,"lastYear":2026,"yearsMeasured":19,"latestSurvey":"May 2026","trend":"falling"}},{"type":"Feature","id":"wsh-7fdbe8c6caeb","geometry":{"type":"Point","coordinates":[-73.91307856842978,40.669334561930114]},"properties":{"id":"wsh-7fdbe8c6caeb","name":"Pitkin Avenue at Bristol Street","street":"Pitkin Avenue","crossStreet":"Bristol Street","borough":"Brooklyn","inPedestrianVolumeIndex":true,"am":531,"md":1398,"pm":2296,"total":4225,"change":-2422,"changeYears":"May 2007 – May 2026","firstYear":2007,"lastYear":2026,"yearsMeasured":20,"latestSurvey":"May 2026","trend":"falling"}},{"type":"Feature","id":"wsh-7fe84a5d7c78","geometry":{"type":"Point","coordinates":[-73.79555468117455,40.70653426935826]},"properties":{"id":"wsh-7fe84a5d7c78","name":"165th Street at 89th Avenue","street":"165th Street","crossStreet":"89th Avenue","borough":"Queens","inPedestrianVolumeIndex":false,"am":207,"md":348,"pm":513,"total":1068,"change":-6528,"changeYears":"May 2007 – May 2026","firstYear":2007,"lastYear":2026,"yearsMeasured":19,"latestSurvey":"May 2026","trend":"falling"}},{"type":"Feature","id":"wsh-837e6ca75883","geometry":{"type":"Point","coordinates":[-73.98017962622333,40.757338486389926]},"properties":{"id":"wsh-837e6ca75883","name":"West 47th Street at Avenue of the Americas","street":"West 47th Street","crossStreet":"Avenue of the Americas","borough":"Manhattan","inPedestrianVolumeIndex":false,"am":2002,"md":2634,"pm":6054,"total":10690,"change":-10347,"changeYears":"May 2007 – May 2026","firstYear":2007,"lastYear":2026,"yearsMeasured":19,"latestSurvey":"May 2026","trend":"falling"}},{"type":"Feature","id":"wsh-864e0a6e858f","geometry":{"type":"Point","coordinates":[-73.89225364571111,40.74891155301485]},"properties":{"id":"wsh-864e0a6e858f","name":"37th Avenue at 73rd Street","street":"37th Avenue","crossStreet":"73rd Street","borough":"Queens","inPedestrianVolumeIndex":true,"am":956,"md":2645,"pm":4029,"total":7630,"change":-620,"changeYears":"May 2007 – May 2026","firstYear":2007,"lastYear":2026,"yearsMeasured":20,"latestSurvey":"May 2026","trend":"flat"}},{"type":"Feature","id":"wsh-86574d7dc909","geometry":{"type":"Point","coordinates":[-73.94703781905247,40.80842973710492]},"properties":{"id":"wsh-86574d7dc909","name":"West 125th Street at Adam C. Powell Boulevard","street":"West 125th Street","crossStreet":"Adam C. Powell Boulevard","borough":"Manhattan","inPedestrianVolumeIndex":true,"am":1942,"md":4632,"pm":9744,"total":16318,"change":3144,"changeYears":"May 2007 – May 2026","firstYear":2007,"lastYear":2026,"yearsMeasured":20,"latestSurvey":"May 2026","trend":"rising"}},{"type":"Feature","id":"wsh-872e6f93b8f2","geometry":{"type":"Point","coordinates":[-73.89530306861195,40.70287665998952]},"properties":{"id":"wsh-872e6f93b8f2","name":"Fresh Po Road at Cypress Hills Street","street":"Fresh Po Road","crossStreet":"Cypress Hills Street","borough":"Queens","inPedestrianVolumeIndex":false,"am":415,"md":581,"pm":928,"total":1924,"change":-146,"changeYears":"May 2007 – May 2026","firstYear":2007,"lastYear":2026,"yearsMeasured":19,"latestSurvey":"May 2026","trend":"flat"}},{"type":"Feature","id":"wsh-87410480d7c3","geometry":{"type":"Point","coordinates":[-73.96931991427776,40.693114646759874]},"properties":{"id":"wsh-87410480d7c3","name":"Myrtle Avenue at Vaerbilt Avenue","street":"Myrtle Avenue","crossStreet":"Vaerbilt Avenue","borough":"Brooklyn","inPedestrianVolumeIndex":false,"am":902,"md":1605,"pm":2130,"total":4637,"change":1140,"changeYears":"September 2007 – September 2018","firstYear":2007,"lastYear":2026,"yearsMeasured":19,"latestSurvey":"May 2026","trend":"rising"}},{"type":"Feature","id":"wsh-8a45419f1ab1","geometry":{"type":"Point","coordinates":[-73.77114917957029,40.76393342115404]},"properties":{"id":"wsh-8a45419f1ab1","name":"Bell Boulevard at 40th Avenue","street":"Bell Boulevard","crossStreet":"40th Avenue","borough":"Queens","inPedestrianVolumeIndex":false,"am":446,"md":1210,"pm":2214,"total":3870,"change":775,"changeYears":"May 2007 – May 2026","firstYear":2007,"lastYear":2026,"yearsMeasured":19,"latestSurvey":"May 2026","trend":"rising"}},{"type":"Feature","id":"wsh-8dc6d00c2229","geometry":{"type":"Point","coordinates":[-74.01286204592034,40.70634164448271]},"properties":{"id":"wsh-8dc6d00c2229","name":"Broadway at Morris Street","street":"Broadway","crossStreet":"Morris Street","borough":"Manhattan","inPedestrianVolumeIndex":true,"am":2791,"md":6776,"pm":7882,"total":17449,"change":3038,"changeYears":"May 2007 – May 2026","firstYear":2007,"lastYear":2026,"yearsMeasured":20,"latestSurvey":"May 2026","trend":"rising"}},{"type":"Feature","id":"wsh-94e9cf9bce4f","geometry":{"type":"Point","coordinates":[-73.9446668043415,40.71156922033028]},"properties":{"id":"wsh-94e9cf9bce4f","name":"Gra Street at Manhattan Avenue","street":"Gra Street","crossStreet":"Manhattan Avenue","borough":"Brooklyn","inPedestrianVolumeIndex":false,"am":532,"md":1199,"pm":1879,"total":3610,"change":132,"changeYears":"May 2007 – May 2026","firstYear":2007,"lastYear":2026,"yearsMeasured":19,"latestSurvey":"May 2026","trend":"flat"}},{"type":"Feature","id":"wsh-98be739c98f3","geometry":{"type":"Point","coordinates":[-73.91804029865675,40.76015497952589]},"properties":{"id":"wsh-98be739c98f3","name":"Steinway Street at 31st Avenue","street":"Steinway Street","crossStreet":"31st Avenue","borough":"Queens","inPedestrianVolumeIndex":false,"am":668,"md":2351,"pm":3744,"total":6763,"change":-5203,"changeYears":"May 2007 – May 2026","firstYear":2007,"lastYear":2026,"yearsMeasured":19,"latestSurvey":"May 2026","trend":"falling"}},{"type":"Feature","id":"wsh-a0fc8e35c0ce","geometry":{"type":"Point","coordinates":[-73.89535781584335,40.86215460031517]},"properties":{"id":"wsh-a0fc8e35c0ce","name":"East Fordham Road at Valentine Avenue","street":"East Fordham Road","crossStreet":"Valentine Avenue","borough":"Bronx","inPedestrianVolumeIndex":true,"am":1688,"md":4082,"pm":6081,"total":11851,"change":-16683,"changeYears":"May 2007 – May 2026","firstYear":2007,"lastYear":2026,"yearsMeasured":20,"latestSurvey":"May 2026","trend":"falling"}},{"type":"Feature","id":"wsh-a50cc74c199e","geometry":{"type":"Point","coordinates":[-73.97213382742112,40.756810835163854]},"properties":{"id":"wsh-a50cc74c199e","name":"Lexington Avenue at 50th Street","street":"Lexington Avenue","crossStreet":"50th Street","borough":"Manhattan","inPedestrianVolumeIndex":false,"am":4250,"md":2343,"pm":7724,"total":14317,"change":-6775,"changeYears":"May 2007 – May 2026","firstYear":2007,"lastYear":2026,"yearsMeasured":19,"latestSurvey":"May 2026","trend":"falling"}},{"type":"Feature","id":"wsh-a5cc5119f63b","geometry":{"type":"Point","coordinates":[-73.99441204702927,40.731436017707075]},"properties":{"id":"wsh-a5cc5119f63b","name":"East 8th Street at University Place","street":"East 8th Street","crossStreet":"University Place","borough":"Manhattan","inPedestrianVolumeIndex":false,"am":1177,"md":2617,"pm":5621,"total":9415,"change":795,"changeYears":"May 2007 – May 2026","firstYear":2007,"lastYear":2026,"yearsMeasured":19,"latestSurvey":"May 2026","trend":"flat"}},{"type":"Feature","id":"wsh-a6b5e0f5b8e4","geometry":{"type":"Point","coordinates":[-74.07740338696911,40.63793280712071]},"properties":{"id":"wsh-a6b5e0f5b8e4","name":"Victory Boulevard at Bay Street","street":"Victory Boulevard","crossStreet":"Bay Street","borough":"Staten Isla","inPedestrianVolumeIndex":true,"am":344,"md":362,"pm":752,"total":1458,"change":-780,"changeYears":"May 2007 – May 2026","firstYear":2007,"lastYear":2026,"yearsMeasured":19,"latestSurvey":"May 2026","trend":"falling"}},{"type":"Feature","id":"wsh-a90c4d20c720","geometry":{"type":"Point","coordinates":[-73.94255463338305,40.703408264633794]},"properties":{"id":"wsh-a90c4d20c720","name":"Graham Avenue at Moore Street","street":"Graham Avenue","crossStreet":"Moore Street","borough":"Brooklyn","inPedestrianVolumeIndex":true,"am":503,"md":1947,"pm":2551,"total":5001,"change":-2458,"changeYears":"May 2007 – May 2026","firstYear":2007,"lastYear":2026,"yearsMeasured":20,"latestSurvey":"May 2026","trend":"falling"}},{"type":"Feature","id":"wsh-ad2cc870b917","geometry":{"type":"Point","coordinates":[-73.8086047835953,40.70340462655154]},"properties":{"id":"wsh-ad2cc870b917","name":"Sutphin Boulevard at 89th Avenue","street":"Sutphin Boulevard","crossStreet":"89th Avenue","borough":"Queens","inPedestrianVolumeIndex":false,"am":1450,"md":990,"pm":2407,"total":4847,"change":799,"changeYears":"May 2007 – May 2026","firstYear":2007,"lastYear":2026,"yearsMeasured":19,"latestSurvey":"May 2026","trend":"rising"}},{"type":"Feature","id":"wsh-b0c39a19945a","geometry":{"type":"Point","coordinates":[-73.99094199014799,40.70806538980731]},"properties":{"id":"wsh-b0c39a19945a","name":"Manhattan Bridge North Path at midpoint","street":"Manhattan Bridge North Path","crossStreet":"midpoint","borough":"East River Bridges","inPedestrianVolumeIndex":false,"am":41,"md":33,"pm":102,"total":176,"change":122,"changeYears":"May 2009 – May 2026","firstYear":2009,"lastYear":2026,"yearsMeasured":16,"latestSurvey":"May 2026","trend":"rising"}},{"type":"Feature","id":"wsh-b18f0dab8c23","geometry":{"type":"Point","coordinates":[-73.96276340616195,40.57732714149917]},"properties":{"id":"wsh-b18f0dab8c23","name":"Brighton Beach Avenue at Brighton 4th Street","street":"Brighton Beach Avenue","crossStreet":"Brighton 4th Street","borough":"Brooklyn","inPedestrianVolumeIndex":true,"am":1389,"md":3298,"pm":4572,"total":9259,"change":-3091,"changeYears":"May 2007 – May 2026","firstYear":2007,"lastYear":2026,"yearsMeasured":20,"latestSurvey":"May 2026","trend":"falling"}},{"type":"Feature","id":"wsh-b429e97b59b6","geometry":{"type":"Point","coordinates":[-73.95882184227794,40.650810536749546]},"properties":{"id":"wsh-b429e97b59b6","name":"Flatbush Avenue at Martense Street","street":"Flatbush Avenue","crossStreet":"Martense Street","borough":"Brooklyn","inPedestrianVolumeIndex":true,"am":1479,"md":3088,"pm":4351,"total":8918,"change":-2406,"changeYears":"May 2007 – May 2026","firstYear":2007,"lastYear":2026,"yearsMeasured":20,"latestSurvey":"May 2026","trend":"falling"}},{"type":"Feature","id":"wsh-b5cb280e716d","geometry":{"type":"Point","coordinates":[-73.96568512678532,40.77144062263456]},"properties":{"id":"wsh-b5cb280e716d","name":"Madison Avenue at East 71st Street","street":"Madison Avenue","crossStreet":"East 71st Street","borough":"Manhattan","inPedestrianVolumeIndex":false,"am":940,"md":3223,"pm":3154,"total":7317,"change":-200,"changeYears":"May 2007 – May 2026","firstYear":2007,"lastYear":2026,"yearsMeasured":19,"latestSurvey":"May 2026","trend":"flat"}},{"type":"Feature","id":"wsh-b613412752b6","geometry":{"type":"Point","coordinates":[-74.01257537541983,40.708351612740366]},"properties":{"id":"wsh-b613412752b6","name":"Trinity Place at Rector Street","street":"Trinity Place","crossStreet":"Rector Street","borough":"Manhattan","inPedestrianVolumeIndex":false,"am":1355,"md":1776,"pm":2573,"total":5704,"change":-8298,"changeYears":"May 2007 – May 2026","firstYear":2007,"lastYear":2026,"yearsMeasured":19,"latestSurvey":"May 2026","trend":"falling"}},{"type":"Feature","id":"wsh-b6a60bae8f80","geometry":{"type":"Point","coordinates":[-73.9939968076081,40.702746482787724]},"properties":{"id":"wsh-b6a60bae8f80","name":"Old Fulton Street at Elizabeth Place","street":"Old Fulton Street","crossStreet":"Elizabeth Place","borough":"Brooklyn","inPedestrianVolumeIndex":false,"am":527,"md":2632,"pm":2938,"total":6097,"change":4481,"changeYears":"May 2007 – May 2026","firstYear":2007,"lastYear":2026,"yearsMeasured":19,"latestSurvey":"May 2026","trend":"rising"}},{"type":"Feature","id":"wsh-b8bf7bff6a5c","geometry":{"type":"Point","coordinates":[-73.97713579908014,40.77968082763136]},"properties":{"id":"wsh-b8bf7bff6a5c","name":"Columbus Avenue at West 75th Street","street":"Columbus Avenue","crossStreet":"West 75th Street","borough":"Manhattan","inPedestrianVolumeIndex":false,"am":1340,"md":3840,"pm":4183,"total":9363,"change":1755,"changeYears":"May 2007 – May 2026","firstYear":2007,"lastYear":2026,"yearsMeasured":19,"latestSurvey":"May 2026","trend":"rising"}},{"type":"Feature","id":"wsh-b92d64c6bd36","geometry":{"type":"Point","coordinates":[-73.97202493782653,40.71353372301599]},"properties":{"id":"wsh-b92d64c6bd36","name":"Williamsburg Bridge at midpoint","street":"Williamsburg Bridge","crossStreet":"midpoint","borough":"East River Bridges","inPedestrianVolumeIndex":false,"am":369,"md":728,"pm":1020,"total":2117,"change":1272,"changeYears":"May 2007 – May 2026","firstYear":2007,"lastYear":2026,"yearsMeasured":18,"latestSurvey":"May 2026","trend":"rising"}},{"type":"Feature","id":"wsh-b9bc88daa701","geometry":{"type":"Point","coordinates":[-73.91119970135458,40.873547359000106]},"properties":{"id":"wsh-b9bc88daa701","name":"Broadway Bridge at midpoint","street":"Broadway Bridge","crossStreet":"midpoint","borough":"Harlem River Bridges","inPedestrianVolumeIndex":false,"am":459,"md":365,"pm":719,"total":1543,"change":-54,"changeYears":"May 2007 – May 2026","firstYear":2007,"lastYear":2026,"yearsMeasured":18,"latestSurvey":"May 2026","trend":"flat"}},{"type":"Feature","id":"wsh-bd11d2708614","geometry":{"type":"Point","coordinates":[-74.01155687409947,40.70463665187375]},"properties":{"id":"wsh-bd11d2708614","name":"Broad Street at Beaver Street","street":"Broad Street","crossStreet":"Beaver Street","borough":"Manhattan","inPedestrianVolumeIndex":true,"am":2676,"md":1831,"pm":4405,"total":8912,"change":852,"changeYears":"May 2007 – May 2026","firstYear":2007,"lastYear":2026,"yearsMeasured":20,"latestSurvey":"May 2026","trend":"flat"}},{"type":"Feature","id":"wsh-be55cd012b31","geometry":{"type":"Point","coordinates":[-73.98934552114228,40.75045405486473]},"properties":{"id":"wsh-be55cd012b31","name":"West 34th Street at Broadway","street":"West 34th Street","crossStreet":"Broadway","borough":"Manhattan","inPedestrianVolumeIndex":true,"am":7448,"md":9658,"pm":20003,"total":37109,"change":-15542,"changeYears":"May 2007 – May 2026","firstYear":2007,"lastYear":2026,"yearsMeasured":20,"latestSurvey":"May 2026","trend":"falling"}},{"type":"Feature","id":"wsh-be7d0b9cb821","geometry":{"type":"Point","coordinates":[-73.94908133692475,40.650831467717424]},"properties":{"id":"wsh-be7d0b9cb821","name":"Church Avenue at Nostra Avenue","street":"Church Avenue","crossStreet":"Nostra Avenue","borough":"Brooklyn","inPedestrianVolumeIndex":true,"am":1442,"md":1899,"pm":3374,"total":6715,"change":-1655,"changeYears":"May 2007 – May 2026","firstYear":2007,"lastYear":2026,"yearsMeasured":19,"latestSurvey":"May 2026","trend":"falling"}},{"type":"Feature","id":"wsh-c15a5bacf60a","geometry":{"type":"Point","coordinates":[-73.99451531515767,40.71493552371378]},"properties":{"id":"wsh-c15a5bacf60a","name":"Forsyth Street at Canal Street","street":"Forsyth Street","crossStreet":"Canal Street","borough":"Manhattan","inPedestrianVolumeIndex":false,"am":1087,"md":2961,"pm":3096,"total":7144,"change":-6413,"changeYears":"May 2007 – May 2026","firstYear":2007,"lastYear":2026,"yearsMeasured":19,"latestSurvey":"May 2026","trend":"falling"}},{"type":"Feature","id":"wsh-c4f82a40907b","geometry":{"type":"Point","coordinates":[-73.9399858877832,40.75066362916971]},"properties":{"id":"wsh-c4f82a40907b","name":"Queens Plaza North & South at Crescent Street","street":"Queens Plaza North & South","crossStreet":"Crescent Street","borough":"Queens","inPedestrianVolumeIndex":false,"am":3709,"md":3940,"pm":5902,"total":13551,"change":220,"changeYears":"May 2007 – May 2026","firstYear":2007,"lastYear":2026,"yearsMeasured":19,"latestSurvey":"May 2026","trend":"flat"}},{"type":"Feature","id":"wsh-c927cfd94d3e","geometry":{"type":"Point","coordinates":[-73.96573732115321,40.64062739307868]},"properties":{"id":"wsh-c927cfd94d3e","name":"Cortelyou Road at Argyle Road","street":"Cortelyou Road","crossStreet":"Argyle Road","borough":"Brooklyn","inPedestrianVolumeIndex":false,"am":2026,"md":1648,"pm":3295,"total":6969,"change":1569,"changeYears":"May 2007 – May 2026","firstYear":2007,"lastYear":2026,"yearsMeasured":19,"latestSurvey":"May 2026","trend":"rising"}},{"type":"Feature","id":"wsh-c9cf352bc777","geometry":{"type":"Point","coordinates":[-73.85779008961042,40.6925963247586]},"properties":{"id":"wsh-c9cf352bc777","name":"Jamaica Avenue at 86th Street","street":"Jamaica Avenue","crossStreet":"86th Street","borough":"Queens","inPedestrianVolumeIndex":false,"am":760,"md":1241,"pm":1979,"total":3980,"change":-987,"changeYears":"May 2007 – May 2026","firstYear":2007,"lastYear":2026,"yearsMeasured":19,"latestSurvey":"May 2026","trend":"falling"}},{"type":"Feature","id":"wsh-c9f890bfcebc","geometry":{"type":"Point","coordinates":[-73.95460085520162,40.7568698600874]},"properties":{"id":"wsh-c9f890bfcebc","name":"Queensboro Bridge at midpoint","street":"Queensboro Bridge","crossStreet":"midpoint","borough":"East River Bridges","inPedestrianVolumeIndex":false,"am":107,"md":214,"pm":371,"total":692,"change":447,"changeYears":"May 2007 – May 2026","firstYear":2007,"lastYear":2026,"yearsMeasured":18,"latestSurvey":"May 2026","trend":"rising"}},{"type":"Feature","id":"wsh-ca1ff3d92273","geometry":{"type":"Point","coordinates":[-73.98983165443038,40.68884781602201]},"properties":{"id":"wsh-ca1ff3d92273","name":"Atlantic Avenue at Boerum Place","street":"Atlantic Avenue","crossStreet":"Boerum Place","borough":"Brooklyn","inPedestrianVolumeIndex":false,"am":531,"md":1823,"pm":2465,"total":4819,"change":2737,"changeYears":"May 2007 – May 2026","firstYear":2007,"lastYear":2026,"yearsMeasured":19,"latestSurvey":"May 2026","trend":"rising"}},{"type":"Feature","id":"wsh-ce221627fcdc","geometry":{"type":"Point","coordinates":[-73.84534157919526,40.720365744814835]},"properties":{"id":"wsh-ce221627fcdc","name":"Austin Street at 71st Ave","street":"Austin Street","crossStreet":"71st Ave","borough":"Queens","inPedestrianVolumeIndex":true,"am":901,"md":2744,"pm":4704,"total":8349,"change":1144,"changeYears":"May 2007 – May 2026","firstYear":2007,"lastYear":2026,"yearsMeasured":20,"latestSurvey":"May 2026","trend":"rising"}},{"type":"Feature","id":"wsh-d2a434accbe6","geometry":{"type":"Point","coordinates":[-73.97390965382397,40.67918699313476]},"properties":{"id":"wsh-d2a434accbe6","name":"Flatbush Avenue at St. Marks Avenue","street":"Flatbush Avenue","crossStreet":"St. Marks Avenue","borough":"Brooklyn","inPedestrianVolumeIndex":false,"am":802,"md":1762,"pm":2383,"total":4947,"change":1559,"changeYears":"May 2007 – May 2026","firstYear":2007,"lastYear":2026,"yearsMeasured":19,"latestSurvey":"May 2026","trend":"rising"}},{"type":"Feature","id":"wsh-d5405bb63bd8","geometry":{"type":"Point","coordinates":[-73.92087824799184,40.83015855511035]},"properties":{"id":"wsh-d5405bb63bd8","name":"Gra Concourse at East 164th Street","street":"Gra Concourse","crossStreet":"East 164th Street","borough":"Bronx","inPedestrianVolumeIndex":true,"am":598,"md":706,"pm":1399,"total":2703,"change":144,"changeYears":"May 2007 – May 2026","firstYear":2007,"lastYear":2026,"yearsMeasured":20,"latestSurvey":"May 2026","trend":"flat"}},{"type":"Feature","id":"wsh-d958773c526a","geometry":{"type":"Point","coordinates":[-73.90192709081789,40.70048761323586]},"properties":{"id":"wsh-d958773c526a","name":"Myrtle Avenue at Weirfield Street","street":"Myrtle Avenue","crossStreet":"Weirfield Street","borough":"Queens","inPedestrianVolumeIndex":false,"am":381,"md":1572,"pm":1972,"total":3925,"change":-3478,"changeYears":"May 2007 – May 2026","firstYear":2007,"lastYear":2026,"yearsMeasured":19,"latestSurvey":"May 2026","trend":"falling"}},{"type":"Feature","id":"wsh-d98ee092ea8d","geometry":{"type":"Point","coordinates":[-73.92785197149036,40.80034506063934]},"properties":{"id":"wsh-d98ee092ea8d","name":"Triborough Bridge (Manhattan span) at midpoint","street":"Triborough Bridge (Manhattan span)","crossStreet":"midpoint","borough":"Harlem River Bridges","inPedestrianVolumeIndex":false,"am":21,"md":40,"pm":58,"total":119,"change":33,"changeYears":"May 2007 – May 2026","firstYear":2007,"lastYear":2026,"yearsMeasured":14,"latestSurvey":"May 2026","trend":"rising"}},{"type":"Feature","id":"wsh-df90542a3140","geometry":{"type":"Point","coordinates":[-73.98067647018506,40.676093537146265]},"properties":{"id":"wsh-df90542a3140","name":"5th Avenue at Union Street","street":"5th Avenue","crossStreet":"Union Street","borough":"Brooklyn","inPedestrianVolumeIndex":true,"am":598,"md":2282,"pm":2625,"total":5505,"change":569,"changeYears":"May 2007 – May 2026","firstYear":2007,"lastYear":2026,"yearsMeasured":20,"latestSurvey":"May 2026","trend":"flat"}},{"type":"Feature","id":"wsh-df9345a126ef","geometry":{"type":"Point","coordinates":[-73.86767352599497,40.85558871971955]},"properties":{"id":"wsh-df9345a126ef","name":"White Plains Road at Pelham Parkway South","street":"White Plains Road","crossStreet":"Pelham Parkway South","borough":"Bronx","inPedestrianVolumeIndex":true,"am":1250,"md":2264,"pm":3921,"total":7435,"change":-1620,"changeYears":"May 2007 – May 2026","firstYear":2007,"lastYear":2026,"yearsMeasured":20,"latestSurvey":"May 2026","trend":"falling"}},{"type":"Feature","id":"wsh-e07fe88be84a","geometry":{"type":"Point","coordinates":[-73.79726496612192,40.704505550443635]},"properties":{"id":"wsh-e07fe88be84a","name":"Jamaica Avenue at 162 Street","street":"Jamaica Avenue","crossStreet":"162 Street","borough":"Queens","inPedestrianVolumeIndex":true,"am":1145,"md":4300,"pm":7232,"total":12677,"change":-5446,"changeYears":"May 2007 – May 2026","firstYear":2007,"lastYear":2026,"yearsMeasured":20,"latestSurvey":"May 2026","trend":"falling"}},{"type":"Feature","id":"wsh-e1b79d2e17d4","geometry":{"type":"Point","coordinates":[-73.99265748471083,40.73559926423828]},"properties":{"id":"wsh-e1b79d2e17d4","name":"East 14th Street at Fifth Avenue","street":"East 14th Street","crossStreet":"Fifth Avenue","borough":"Manhattan","inPedestrianVolumeIndex":true,"am":2370,"md":4799,"pm":9169,"total":16338,"change":-4411,"changeYears":"May 2007 – May 2026","firstYear":2007,"lastYear":2026,"yearsMeasured":20,"latestSurvey":"May 2026","trend":"falling"}},{"type":"Feature","id":"wsh-e88b5c13cd2c","geometry":{"type":"Point","coordinates":[-73.99114419929703,40.70794847867023]},"properties":{"id":"wsh-e88b5c13cd2c","name":"Manhattan Bridge South Path at midpoint","street":"Manhattan Bridge South Path","crossStreet":"midpoint","borough":"East River Bridges","inPedestrianVolumeIndex":false,"am":206,"md":494,"pm":785,"total":1485,"change":1114,"changeYears":"May 2007 – May 2026","firstYear":2007,"lastYear":2026,"yearsMeasured":18,"latestSurvey":"May 2026","trend":"rising"}},{"type":"Feature","id":"wsh-e9418bffbe64","geometry":{"type":"Point","coordinates":[-73.98960330219742,40.70286152715002]},"properties":{"id":"wsh-e9418bffbe64","name":"Washington Street at Front Street","street":"Washington Street","crossStreet":"Front Street","borough":"Brooklyn","inPedestrianVolumeIndex":false,"am":1035,"md":4713,"pm":4713,"total":10461,"change":7677,"changeYears":"May 2007 – May 2026","firstYear":2007,"lastYear":2026,"yearsMeasured":19,"latestSurvey":"May 2026","trend":"rising"}},{"type":"Feature","id":"wsh-ec5747719a1d","geometry":{"type":"Point","coordinates":[-73.93686603590555,40.78611224350854]},"properties":{"id":"wsh-ec5747719a1d","name":"Wards Isla Bridge at midpoint","street":"Wards Isla Bridge","crossStreet":"midpoint","borough":"Harlem River Bridges","inPedestrianVolumeIndex":false,"am":174,"md":266,"pm":592,"total":1032,"change":697,"changeYears":"May 2007 – May 2026","firstYear":2007,"lastYear":2026,"yearsMeasured":18,"latestSurvey":"May 2026","trend":"rising"}},{"type":"Feature","id":"wsh-f00d9aeba90c","geometry":{"type":"Point","coordinates":[-73.99669788343083,40.70597016498046]},"properties":{"id":"wsh-f00d9aeba90c","name":"Brooklyn Bridge at midpoint","street":"Brooklyn Bridge","crossStreet":"midpoint","borough":"East River Bridges","inPedestrianVolumeIndex":false,"am":709,"md":3463,"pm":4679,"total":8851,"change":5056,"changeYears":"May 2007 – May 2026","firstYear":2007,"lastYear":2026,"yearsMeasured":18,"latestSurvey":"May 2026","trend":"rising"}},{"type":"Feature","id":"wsh-f090ee6dc47f","geometry":{"type":"Point","coordinates":[-73.96818725047231,40.67292523719001]},"properties":{"id":"wsh-f090ee6dc47f","name":"Eastern Parkway at Plaza Street East","street":"Eastern Parkway","crossStreet":"Plaza Street East","borough":"Brooklyn","inPedestrianVolumeIndex":true,"am":1181,"md":2901,"pm":2455,"total":6537,"change":1692,"changeYears":"May 2007 – May 2026","firstYear":2007,"lastYear":2026,"yearsMeasured":20,"latestSurvey":"May 2026","trend":"rising"}},{"type":"Feature","id":"wsh-f0ebbcea2eea","geometry":{"type":"Point","coordinates":[-73.98588670734839,40.69087186438648]},"properties":{"id":"wsh-f0ebbcea2eea","name":"Fulton Street at Lawrence Street","street":"Fulton Street","crossStreet":"Lawrence Street","borough":"Brooklyn","inPedestrianVolumeIndex":true,"am":1701,"md":3909,"pm":7283,"total":12893,"change":-8245,"changeYears":"May 2007 – May 2026","firstYear":2007,"lastYear":2026,"yearsMeasured":20,"latestSurvey":"May 2026","trend":"falling"}},{"type":"Feature","id":"wsh-f46be04ae7f2","geometry":{"type":"Point","coordinates":[-73.99694382805035,40.7673124325193]},"properties":{"id":"wsh-f46be04ae7f2","name":"Hudson River Greenway at 50th Street","street":"Hudson River Greenway","crossStreet":"50th Street","borough":"Manhattan","inPedestrianVolumeIndex":false,"am":657,"md":957,"pm":1341,"total":2955,"change":2073,"changeYears":"May 2007 – May 2026","firstYear":2007,"lastYear":2026,"yearsMeasured":19,"latestSurvey":"May 2026","trend":"rising"}},{"type":"Feature","id":"wsh-f48cbbf7518a","geometry":{"type":"Point","coordinates":[-74.10857607699721,40.63017169829432]},"properties":{"id":"wsh-f48cbbf7518a","name":"Forest Avenue at Regan Avenue","street":"Forest Avenue","crossStreet":"Regan Avenue","borough":"Staten Isla","inPedestrianVolumeIndex":false,"am":153,"md":200,"pm":649,"total":1002,"change":475,"changeYears":"May 2007 – May 2026","firstYear":2007,"lastYear":2026,"yearsMeasured":19,"latestSurvey":"May 2026","trend":"rising"}},{"type":"Feature","id":"wsh-f5ab47a2c799","geometry":{"type":"Point","coordinates":[-73.98727479290567,40.69272414021878]},"properties":{"id":"wsh-f5ab47a2c799","name":"Jay Street at Willoughby Street","street":"Jay Street","crossStreet":"Willoughby Street","borough":"Brooklyn","inPedestrianVolumeIndex":true,"am":1028,"md":860,"pm":1808,"total":3696,"change":2299,"changeYears":"May 2007 – May 2019","firstYear":2007,"lastYear":2020,"yearsMeasured":14,"latestSurvey":"October 2020","trend":"rising"}},{"type":"Feature","id":"wsh-f89a565b5881","geometry":{"type":"Point","coordinates":[-73.98019868261785,40.76021178450935]},"properties":{"id":"wsh-f89a565b5881","name":"Sixth Avenue at 50th Street","street":"Sixth Avenue","crossStreet":"50th Street","borough":"Manhattan","inPedestrianVolumeIndex":false,"am":5540,"md":6607,"pm":16178,"total":28325,"change":-4712,"changeYears":"May 2007 – May 2026","firstYear":2007,"lastYear":2026,"yearsMeasured":19,"latestSurvey":"May 2026","trend":"flat"}},{"type":"Feature","id":"wsh-f9e3d630eed6","geometry":{"type":"Point","coordinates":[-73.84840699076847,40.72272482164015]},"properties":{"id":"wsh-f9e3d630eed6","name":"Yellowstone Boulevard at Queens Boulevard","street":"Yellowstone Boulevard","crossStreet":"Queens Boulevard","borough":"Queens","inPedestrianVolumeIndex":false,"am":558,"md":820,"pm":1283,"total":2661,"change":368,"changeYears":"May 2007 – May 2026","firstYear":2007,"lastYear":2026,"yearsMeasured":19,"latestSurvey":"May 2026","trend":"rising"}}]}
