{"type":"FeatureCollection","features":[{"type":"Feature","id":"wsk-3c77407986f4","geometry":{"type":"Point","coordinates":[-73.8850099,40.827664]},"properties":{"id":"wsk-3c77407986f4","name":"Concrete Plant Park","counterSerial":"YAH22104563","sensorIds":["300040736","300043073"],"borough":"Bronx","granularity":"PT15M","directional":true,"firstObservation":"2024-04-04T17:45:00Z","lastObservation":"2026-09-28T05:00:00Z","active":false,"staleness":"faulted","activity":"quiet","count":0,"expected":0,"percentile":50,"ratio":null,"observationCount":7,"observedAt":"2026-09-28T05:00:00Z"}},{"type":"Feature","id":"wsk-aff5dbcb32ab","geometry":{"type":"Point","coordinates":[-73.93099,40.5841]},"properties":{"id":"wsk-aff5dbcb32ab","name":"Emmons Ave","counterSerial":"YAH22104564","sensorIds":["300038509","300043075"],"borough":"Brooklyn","granularity":"PT15M","directional":true,"firstObservation":"2023-12-27T17:15:00Z","lastObservation":"2026-09-28T05:15:00Z","active":true,"staleness":"fresh","activity":"quiet","count":0,"expected":0,"percentile":43,"ratio":null,"observationCount":7,"observedAt":"2026-09-28T05:15:00Z"}},{"type":"Feature","id":"wsk-d0bf326c77cf","geometry":{"type":"Point","coordinates":[-73.93207,40.84219]},"properties":{"id":"wsk-d0bf326c77cf","name":"High Bridge","counterSerial":"YAH22104566","sensorIds":["300038506","300043077"],"borough":"Manhattan","granularity":"PT15M","directional":true,"firstObservation":"2023-12-27T15:00:00Z","lastObservation":"2026-06-07T05:45:00Z","active":false,"staleness":"offline","activity":"unavailable","count":null,"expected":null,"percentile":null,"ratio":null,"observationCount":0,"observedAt":null}},{"type":"Feature","id":"wsk-e706301496d4","geometry":{"type":"Point","coordinates":[-73.92439305793233,40.807046290967556]},"properties":{"id":"wsk-e706301496d4","name":"Willis Ave","counterSerial":"YAH22104565","sensorIds":["300028963","300029648"],"borough":"Bronx","granularity":"PT15M","directional":true,"firstObservation":"2022-09-02T15:15:00Z","lastObservation":"2025-09-22T05:30:00Z","active":false,"staleness":"offline","activity":"unavailable","count":null,"expected":null,"percentile":null,"ratio":null,"observationCount":0,"observedAt":null}}]}
